{"fetched_at":"2026-03-30T06:02:59Z","count":15439,"tles":[{"name":"STARLINK-35706","line1":"1 67051U 25294X   26087.87720053  .00036899  00000+0  13429-2 0  9991","line2":"2 67051  43.0045 289.7153 0001628 275.5938  84.4728 15.27600676 17739","category":"Starlink"}]}