{
  "norad_id": 67051,
  "name": "STARLINK-35706",
  "history": [
    {
      "epoch": "2026-03-28T21:03:10.125792",
      "apogee_km": 484.1041763731837,
      "perigee_km": 481.87019433843216,
      "latitude_deg": 39.43089676235383,
      "longitude_deg": -110.68874911987223,
      "semi_major_axis_km": 6861.124185355808,
      "eccentricity": 0.0001628,
      "inclination_deg": 43.0045,
      "raan_deg": 289.7153,
      "arg_perigee_deg": 275.5938,
      "mean_anomaly_deg": 84.4728,
      "mean_motion_rev_day": 15.27600676
    }
  ]
}